{
  "type": "FeatureCollection",
  "features": [
    {
      "type": "Feature",
      "properties": {
        "norad_id": 38755,
        "name": "SPOT 6",
        "group": "resource",
        "lat": 75.19551371428417,
        "lon": -90.54111295893418,
        "alt_km": 689.8789471129758,
        "timestamp": "2025-12-17T21:39:45.365628+00:00",
        "meta_object_name": "SPOT 6",
        "meta_object_id": "2012-047A",
        "meta_epoch": "2025-12-17T17:54:07.665120",
        "meta_mean_motion": 14.58536963,
        "meta_eccentricity": 0.0001309,
        "meta_inclination": 98.1569,
        "meta_ra_of_asc_node": 56.4385,
        "meta_arg_of_pericenter": 82.6881,
        "meta_mean_anomaly": 277.4467,
        "meta_ephemeris_type": 0,
        "meta_classification_type": "U",
        "meta_norad_cat_id": 38755,
        "meta_element_set_no": 999,
        "meta_rev_at_epoch": 70660,
        "meta_bstar": 6.9541e-05,
        "meta_mean_motion_dot": 2.78e-06,
        "meta_mean_motion_ddot": 0,
        "tle_line1": "1 38755U 12047A   25351.74592205  .00000278  00000+0  69541-4 0  9997",
        "tle_line2": "2 38755  98.1569  56.4385 0001309  82.6881 277.4467 14.58536963706601"
      },
      "geometry": {
        "type": "Point",
        "coordinates": [
          -90.54111295893418,
          75.19551371428417
        ]
      }
    },
    {
      "type": "Feature",
      "properties": {
        "norad_id": 39019,
        "name": "PLEIADES 1B",
        "group": "resource",
        "lat": 0.09502123314269272,
        "lon": 64.45919453848538,
        "alt_km": 700.7172218283404,
        "timestamp": "2025-12-17T21:39:45.365637+00:00",
        "meta_object_name": "PLEIADES 1B",
        "meta_object_id": "2012-068A",
        "meta_epoch": "2025-12-17T15:04:35.090688",
        "meta_mean_motion": 14.5855759,
        "meta_eccentricity": 0.00011648,
        "meta_inclination": 98.1793,
        "meta_ra_of_asc_node": 64.2028,
        "meta_arg_of_pericenter": 84.8916,
        "meta_mean_anomaly": 275.2416,
        "meta_ephemeris_type": 0,
        "meta_classification_type": "U",
        "meta_norad_cat_id": 39019,
        "meta_element_set_no": 999,
        "meta_rev_at_epoch": 69438,
        "meta_bstar": 7.6294491e-05,
        "meta_mean_motion_dot": 3.09e-06,
        "meta_mean_motion_ddot": 0,
        "tle_line1": "1 39019U 12068A   25351.62818392  .00000309  00000+0  76294-4 0  9997",
        "tle_line2": "2 39019  98.1793  64.2028 0001164  84.8916 275.2416 14.58557590694387"
      },
      "geometry": {
        "type": "Point",
        "coordinates": [
          64.45919453848538,
          0.09502123314269272
        ]
      }
    },
    {
      "type": "Feature",
      "properties": {
        "norad_id": 39030,
        "name": "GOKTURK 2",
        "group": "resource",
        "lat": 13.693173873632652,
        "lon": 15.188277643862946,
        "alt_km": 644.879750539767,
        "timestamp": "2025-12-17T21:39:45.365646+00:00",
        "meta_object_name": "GOKTURK 2",
        "meta_object_id": "2012-073A",
        "meta_epoch": "2025-12-17T14:24:04.478976",
        "meta_mean_motion": 14.75298315,
        "meta_eccentricity": 0.00011335,
        "meta_inclination": 97.6893,
        "meta_ra_of_asc_node": 193.0143,
        "meta_arg_of_pericenter": 107.0733,
        "meta_mean_anomaly": 253.0601,
        "meta_ephemeris_type": 0,
        "meta_classification_type": "U",
        "meta_norad_cat_id": 39030,
        "meta_element_set_no": 999,
        "meta_rev_at_epoch": 69773,
        "meta_bstar": 9.7921283e-05,
        "meta_mean_motion_dot": 6.16e-06,
        "meta_mean_motion_ddot": 0,
        "tle_line1": "1 39030U 12073A   25351.60005184  .00000616  00000+0  97921-4 0  9992",
        "tle_line2": "2 39030  97.6893 193.0143 0001133 107.0733 253.0601 14.75298315697733"
      },
      "geometry": {
        "type": "Point",
        "coordinates": [
          15.188277643862946,
          13.693173873632652
        ]
      }
    },
    {
      "type": "Feature",
      "properties": {
        "norad_id": 39084,
        "name": "LANDSAT 8",
        "group": "resource",
        "lat": 35.9017695582706,
        "lon": -114.10318579100874,
        "alt_km": 699.5663103681745,
        "timestamp": "2025-12-17T21:39:45.365655+00:00",
        "meta_object_name": "LANDSAT 8",
        "meta_object_id": "2013-008A",
        "meta_epoch": "2025-12-17T14:24:49.393152",
        "meta_mean_motion": 14.57118797,
        "meta_eccentricity": 0.0001059,
        "meta_inclination": 98.2068,
        "meta_ra_of_asc_node": 59.6023,
        "meta_arg_of_pericenter": 91.5629,
        "meta_mean_anomaly": 268.5691,
        "meta_ephemeris_type": 0,
        "meta_classification_type": "U",
        "meta_norad_cat_id": 39084,
        "meta_element_set_no": 999,
        "meta_rev_at_epoch": 67145,
        "meta_bstar": 8.6223808e-05,
        "meta_mean_motion_dot": 3.43e-06,
        "meta_mean_motion_ddot": 0,
        "tle_line1": "1 39084U 13008A   25351.60057168  .00000343  00000+0  86224-4 0  9990",
        "tle_line2": "2 39084  98.2068  59.6023 0001059  91.5629 268.5691 14.57118797671451"
      },
      "geometry": {
        "type": "Point",
        "coordinates": [
          -114.10318579100874,
          35.9017695582706
        ]
      }
    },
    {
      "type": "Feature",
      "properties": {
        "norad_id": 39086,
        "name": "SARAL",
        "group": "resource",
        "lat": 36.67681864582794,
        "lon": 169.3323965848779,
        "alt_km": 778.8933788666245,
        "timestamp": "2025-12-17T21:39:45.365664+00:00",
        "meta_object_name": "SARAL",
        "meta_object_id": "2013-009A",
        "meta_epoch": "2025-12-17T14:47:08.007360",
        "meta_mean_motion": 14.32758697,
        "meta_eccentricity": 0.00029371,
        "meta_inclination": 98.5502,
        "meta_ra_of_asc_node": 175.4828,
        "meta_arg_of_pericenter": 99.5958,
        "meta_mean_anomaly": 260.5558,
        "meta_ephemeris_type": 0,
        "meta_classification_type": "U",
        "meta_norad_cat_id": 39086,
        "meta_element_set_no": 999,
        "meta_rev_at_epoch": 66960,
        "meta_bstar": 5.2144243e-05,
        "meta_mean_motion_dot": 9.8e-07,
        "meta_mean_motion_ddot": 0,
        "tle_line1": "1 39086U 13009A   25351.61606490  .00000098  00000+0  52144-4 0  9993",
        "tle_line2": "2 39086  98.5502 175.4828 0002937  99.5958 260.5558 14.32758697669608"
      },
      "geometry": {
        "type": "Point",
        "coordinates": [
          169.3323965848779,
          36.67681864582794
        ]
      }
    },
    {
      "type": "Feature",
      "properties": {
        "norad_id": 39150,
        "name": "GAOFEN-1",
        "group": "resource",
        "lat": -81.65720149576194,
        "lon": 170.5147003917815,
        "alt_km": 657.5526105321987,
        "timestamp": "2025-12-17T21:39:45.365673+00:00",
        "meta_object_name": "GAOFEN-1",
        "meta_object_id": "2013-018A",
        "meta_epoch": "2025-12-17T15:34:37.791264",
        "meta_mean_motion": 14.76544264,
        "meta_eccentricity": 0.00184216,
        "meta_inclination": 97.9326,
        "meta_ra_of_asc_node": 62.2217,
        "meta_arg_of_pericenter": 127.8925,
        "meta_mean_anomaly": 232.3954,
        "meta_ephemeris_type": 0,
        "meta_classification_type": "U",
        "meta_norad_cat_id": 39150,
        "meta_element_set_no": 999,
        "meta_rev_at_epoch": 68145,
        "meta_bstar": 0.00013421853,
        "meta_mean_motion_dot": 8.87e-06,
        "meta_mean_motion_ddot": 0,
        "tle_line1": "1 39150U 13018A   25351.64904851  .00000887  00000+0  13422-3 0  9991",
        "tle_line2": "2 39150  97.9326  62.2217 0018421 127.8925 232.3954 14.76544264681451"
      },
      "geometry": {
        "type": "Point",
        "coordinates": [
          170.5147003917815,
          -81.65720149576194
        ]
      }
    },
    {
      "type": "Feature",
      "properties": {
        "norad_id": 39160,
        "name": "VNREDSAT 1",
        "group": "resource",
        "lat": 64.50108746557413,
        "lon": -115.9941144412402,
        "alt_km": 670.3143386138345,
        "timestamp": "2025-12-17T21:39:45.365683+00:00",
        "meta_object_name": "VNREDSAT 1",
        "meta_object_id": "2013-021B",
        "meta_epoch": "2025-12-17T14:35:08.855232",
        "meta_mean_motion": 14.64930627,
        "meta_eccentricity": 0.00012256,
        "meta_inclination": 97.9374,
        "meta_ra_of_asc_node": 46.7123,
        "meta_arg_of_pericenter": 78.2622,
        "meta_mean_anomaly": 281.8719,
        "meta_ephemeris_type": 0,
        "meta_classification_type": "U",
        "meta_norad_cat_id": 39160,
        "meta_element_set_no": 999,
        "meta_rev_at_epoch": 67370,
        "meta_bstar": 0.00012175236,
        "meta_mean_motion_dot": 6.06e-06,
        "meta_mean_motion_ddot": 0,
        "tle_line1": "1 39160U 13021B   25351.60774138  .00000606  00000+0  12175-3 0  9998",
        "tle_line2": "2 39160  97.9374  46.7123 0001225  78.2622 281.8719 14.64930627673701"
      },
      "geometry": {
        "type": "Point",
        "coordinates": [
          -115.9941144412402,
          64.50108746557413
        ]
      }
    }
  ]
}